STARLINK-35798          
1 66292U 25247AD  26068.59673868  .00024982  00000+0  85285-3 0  9994
2 66292  53.1600 191.5694 0000811  69.5956 290.5132 15.30196420 21014
KUIPER-00222            
1 67782U 26030U   26068.67636257  .00055223  00000+0  17317-2 0  9992
2 67782  51.8817 219.7147 0012800  40.1845 320.0084 15.32445377  5087
